0 DELTA 1 DEB
1 07148U 73086DN  13282.74388249  .00000067  00000-0  97039-3 0  3140
2 07148 102.3121 352.1145 0126567 323.6598 149.5422 12.26317405786094
0 DELTA 1 DEB
1 07148U 73086DN  13287.72242163  .00000074  00000-0  10312-2 0  3165
2 07148 102.3120 357.0191 0127306 314.5431 168.7119 12.26316434786700
0 DELTA 1 DEB
1 07148U 73086DN  13289.76122491  .00000076  00000-0  10516-2 0  3171
2 07148 102.3118 359.0270 0127241 310.8908 169.5085 12.26316124786957
0 DELTA 1 DEB
1 07148U 73086DN  13292.18686336  .00000023  00000-0  58986-3 0  3181
2 07148 102.3118 001.4173 0128032 306.4088 078.2240 12.26317260787251
0 DELTA 1 DEB
1 07148U 73086DN  13295.20384557  .00000007  00000-0  45507-3 0  3195
2 07148 102.3117 004.3893 0128545 300.9571 077.4773 12.26316805787623
